{
    "links": {
        "self": "http://www.neowsapp.com/rest/v1/neo/3781982?api_key=iIulBulltgU6a56xZRHN4H3l9WmuAYTsLGpBGhQ2"
    },
    "id": "3781982",
    "neo_reference_id": "3781982",
    "name": "(2017 SG20)",
    "designation": "2017 SG20",
    "nasa_jpl_url": "http://ssd.jpl.nasa.gov/sbdb.cgi?sstr=3781982",
    "absolute_magnitude_h": 25.3,
    "estimated_diameter": {
        "kilometers": {
            "estimated_diameter_min": 0.0231502122,
            "estimated_diameter_max": 0.0517654482
        },
        "meters": {
            "estimated_diameter_min": 23.150212221,
            "estimated_diameter_max": 51.7654482198
        },
        "miles": {
            "estimated_diameter_min": 0.0143848705,
            "estimated_diameter_max": 0.0321655483
        },
        "feet": {
            "estimated_diameter_min": 75.9521422633,
            "estimated_diameter_max": 169.8341531374
        }
    },
    "is_potentially_hazardous_asteroid": false,
    "close_approach_data": [
        {
            "close_approach_date": "2017-10-02",
            "close_approach_date_full": "2017-Oct-02 03:20",
            "epoch_date_close_approach": 1506914400000,
            "relative_velocity": {
                "kilometers_per_second": "11.3676991301",
                "kilometers_per_hour": "40923.716868526",
                "miles_per_hour": "25428.4061842238"
            },
            "miss_distance": {
                "astronomical": "0.0391884278",
                "lunar": "15.2442984142",
                "kilometers": "5862505.327528786",
                "miles": "3642791.8920218068"
            },
            "orbiting_body": "Earth"
        }
    ],
    "orbital_data": {
        "orbit_id": "2",
        "orbit_determination_date": "2017-10-03 06:48:04",
        "first_observation_date": "2017-09-28",
        "last_observation_date": "2017-10-02",
        "data_arc_in_days": 4,
        "observations_used": 35,
        "orbit_uncertainty": "8",
        "minimum_orbit_intersection": ".0363788",
        "jupiter_tisserand_invariant": "3.159",
        "epoch_osculation": "2458025.5",
        "eccentricity": ".5981093624435033",
        "semi_major_axis": "2.506642018949904",
        "inclination": "13.19945398234635",
        "ascending_node_longitude": "6.729481418496647",
        "orbital_period": "1449.562349044269",
        "perihelion_distance": "1.007395959121681",
        "perihelion_argument": "24.94707354120354",
        "aphelion_distance": "4.005888078778127",
        "perihelion_time": "2458046.766324035360",
        "mean_anomaly": "354.7184909584763",
        "mean_motion": ".2483508213616038",
        "equinox": "J2000",
        "orbit_class": {
            "orbit_class_type": "APO",
            "orbit_class_description": "Near-Earth asteroid orbits which cross the Earth’s orbit similar to that of 1862 Apollo",
            "orbit_class_range": "a (semi-major axis) > 1.0 AU; q (perihelion) < 1.017 AU"
        }
    },
    "is_sentry_object": false
}